ONEWEB-0207             
1 48242U 21031AJ  26199.23424452  .00000263  00000+0  67534-3 0  9998
2 48242  87.8972 283.5150 0001996  90.9931 269.1427 13.14500890252374
ONEWEB-0208             
1 48243U 21031AK  26199.21601780  .00000212  00000+0  53858-3 0  9996
2 48243  87.8965 283.5238 0002393 100.4460 259.6940 13.14502524252381
ONEWEB-0200             
1 48244U 21031AL  26199.17954822 -.00000113  00000+0 -34054-3 0  9999
2 48244  87.8980 283.5204 0002126  97.4519 262.6852 13.14502407252304
ONEWEB-0217             
1 48245U 21031AM  26199.19539979 -.00000135  00000+0 -39939-3 0  9995
2 48245  87.8974 283.5213 0002454 101.1493 258.9913 13.14503568252255
ONEWEB-0211             
1 48767U 21045A   26199.13103385  .00000149  00000+0  35756-3 0  9997
2 48767  87.8985 252.9100 0002745 104.1846 255.9590 13.16197719248510
ONEWEB-0223             
1 48768U 21045B   26199.14860459  .00000214  00000+0  53399-3 0  9997
2 48768  87.8990 253.0230 0002369 106.6290 253.5101 13.15548882248472
ONEWEB-0230             
1 48769U 21045C   26199.12008435 -.00000012  00000+0 -66074-4 0  9997
2 48769  87.8978 253.0400 0001933  95.7282 264.4069 13.15548367248734
ONEWEB-0237             
1 48770U 21045D   26199.18504500 -.00000041  00000+0 -14393-3 0  9997
2 48770  87.8979 253.0285 0002393  94.2945 265.8459 13.15548544248464
ONEWEB-0235             
1 48771U 21045E   26199.15967498  .00000052  00000+0  10290-3 0  9996
2 48771  87.8990 253.0220 0002267 107.2632 252.8747 13.15550709248456
ONEWEB-0242             
1 48772U 21045F   26199.15335819  .00000110  00000+0  25778-3 0  9995
2 48772  87.8994 253.0207 0002027 103.2332 256.9024 13.15548560248492
ONEWEB-0241             
1 48773U 21045G   26199.14070500  .00000227  00000+0  56829-3 0  9998
2 48773  87.8981 253.0380 0002434 104.5549 255.5851 13.15538830248400
ONEWEB-0243             
1 48774U 21045H   26199.17235321 -.00000060  00000+0 -19387-3 0  9991
2 48774  87.8982 253.0443 0002004 114.1170 246.0170 13.15550442248437
ONEWEB-0222             
1 48775U 21045J   26199.15573092  .00000123  00000+0  29245-3 0  9992
2 48775  87.8991 253.0177 0002236 101.2817 258.8565 13.15548255248476
ONEWEB-0244             
1 48776U 21045K   26199.18187995 -.00000077  00000+0 -23864-3 0  9990
2 48776  87.8993 253.0091 0002103 101.2756 258.8611 13.15548566249040
ONEWEB-0247             
1 48777U 21045L   26199.17868954 -.00000106  00000+0 -31688-3 0  9997
2 48777  87.8982 253.0377 0002230 119.7947 240.3405 13.15546791248485
ONEWEB-0245             
1 48778U 21045M   26199.17394157 -.00000090  00000+0 -27242-3 0  9990
2 48778  87.8991 253.0206 0002288  98.6264 261.5126 13.15549361248455
