{"fetched_at":"2026-07-18T17:29:31.619Z","source":"https://celestrak.org/NORAD/elements/gp.php?GROUP=oneweb&FORMAT=JSON","constellation":"oneweb","records":[{"OBJECT_NAME":"ONEWEB-0207","OBJECT_ID":"2021-031AJ","EPOCH":"2026-07-18T05:37:18.726528","CLASSIFICATION_TYPE":"U","MEAN_MOTION":13.1450089,"ECCENTRICITY":0.00019967,"INCLINATION":87.8972,"RA_OF_ASC_NODE":283.515,"ARG_OF_PERICENTER":90.9931,"MEAN_ANOMALY":269.1427,"EPHEMERIS_TYPE":0,"NORAD_CAT_ID":48242,"ELEMENT_SET_NO":999,"REV_AT_EPOCH":25237,"BSTAR":0.00067533822,"MEAN_MOTION_DOT":0.00000263,"MEAN_MOTION_DDOT":0},{"OBJECT_NAME":"ONEWEB-0208","OBJECT_ID":"2021-031AK","EPOCH":"2026-07-18T05:11:03.937920","CLASSIFICATION_TYPE":"U","MEAN_MOTION":13.14502524,"ECCENTRICITY":0.00023936,"INCLINATION":87.8965,"RA_OF_ASC_NODE":283.5238,"ARG_OF_PERICENTER":100.446,"MEAN_ANOMALY":259.694,"EPHEMERIS_TYPE":0,"NORAD_CAT_ID":48243,"ELEMENT_SET_NO":999,"REV_AT_EPOCH":25238,"BSTAR":0.00053857579,"MEAN_MOTION_DOT":0.00000212,"MEAN_MOTION_DDOT":0},{"OBJECT_NAME":"ONEWEB-0200","OBJECT_ID":"2021-031AL","EPOCH":"2026-07-18T04:18:32.966208","CLASSIFICATION_TYPE":"U","MEAN_MOTION":13.14502407,"ECCENTRICITY":0.00021264,"INCLINATION":87.898,"RA_OF_ASC_NODE":283.5204,"ARG_OF_PERICENTER":97.4519,"MEAN_ANOMALY":262.6852,"EPHEMERIS_TYPE":0,"NORAD_CAT_ID":48244,"ELEMENT_SET_NO":999,"REV_AT_EPOCH":25230,"BSTAR":-0.00034053931,"MEAN_MOTION_DOT":-0.00000113,"MEAN_MOTION_DDOT":0},{"OBJECT_NAME":"ONEWEB-0217","OBJECT_ID":"2021-031AM","EPOCH":"2026-07-18T04:41:22.541856","CLASSIFICATION_TYPE":"U","MEAN_MOTION":13.14503568,"ECCENTRICITY":0.00024546,"INCLINATION":87.8974,"RA_OF_ASC_NODE":283.5213,"ARG_OF_PERICENTER":101.1493,"MEAN_ANOMALY":258.9913,"EPHEMERIS_TYPE":0,"NORAD_CAT_ID":48245,"ELEMENT_SET_NO":999,"REV_AT_EPOCH":25225,"BSTAR":-0.00039938706,"MEAN_MOTION_DOT":-0.00000135,"MEAN_MOTION_DDOT":0},{"OBJECT_NAME":"ONEWEB-0211","OBJECT_ID":"2021-045A","EPOCH":"2026-07-18T03:08:41.324640","CLASSIFICATION_TYPE":"U","MEAN_MOTION":13.16197719,"ECCENTRICITY":0.00027454,"INCLINATION":87.8985,"RA_OF_ASC_NODE":252.91,"ARG_OF_PERICENTER":104.1846,"MEAN_ANOMALY":255.959,"EPHEMERIS_TYPE":0,"NORAD_CAT_ID":48767,"ELEMENT_SET_NO":999,"REV_AT_EPOCH":24851,"BSTAR":0.00035756164,"MEAN_MOTION_DOT":0.00000149,"MEAN_MOTION_DDOT":0},{"OBJECT_NAME":"ONEWEB-0223","OBJECT_ID":"2021-045B","EPOCH":"2026-07-18T03:33:59.436576","CLASSIFICATION_TYPE":"U","MEAN_MOTION":13.15548882,"ECCENTRICITY":0.00023699,"INCLINATION":87.899,"RA_OF_ASC_NODE":253.023,"ARG_OF_PERICENTER":106.629,"MEAN_ANOMALY":253.5101,"EPHEMERIS_TYPE":0,"NORAD_CAT_ID":48768,"ELEMENT_SET_NO":999,"REV_AT_EPOCH":24847,"BSTAR":0.00053398522,"MEAN_MOTION_DOT":0.00000214,"MEAN_MOTION_DDOT":0},{"OBJECT_NAME":"ONEWEB-0230","OBJECT_ID":"2021-045C","EPOCH":"2026-07-18T02:52:55.287840","CLASSIFICATION_TYPE":"U","MEAN_MOTION":13.15548367,"ECCENTRICITY":0.00019337,"INCLINATION":87.8978,"RA_OF_ASC_NODE":253.04,"ARG_OF_PERICENTER":95.7282,"MEAN_ANOMALY":264.4069,"EPHEMERIS_TYPE":0,"NORAD_CAT_ID":48769,"ELEMENT_SET_NO":999,"REV_AT_EPOCH":24873,"BSTAR":-0.000066073851,"MEAN_MOTION_DOT":-1.2e-7,"MEAN_MOTION_DDOT":0},{"OBJECT_NAME":"ONEWEB-0237","OBJECT_ID":"2021-045D","EPOCH":"2026-07-18T04:26:27.888000","CLASSIFICATION_TYPE":"U","MEAN_MOTION":13.15548544,"ECCENTRICITY":0.00023937,"INCLINATION":87.8979,"RA_OF_ASC_NODE":253.0285,"ARG_OF_PERICENTER":94.2945,"MEAN_ANOMALY":265.8459,"EPHEMERIS_TYPE":0,"NORAD_CAT_ID":48770,"ELEMENT_SET_NO":999,"REV_AT_EPOCH":24846,"BSTAR":-0.00014393239,"MEAN_MOTION_DOT":-4.1e-7,"MEAN_MOTION_DDOT":0},{"OBJECT_NAME":"ONEWEB-0235","OBJECT_ID":"2021-045E","EPOCH":"2026-07-18T03:49:55.918272","CLASSIFICATION_TYPE":"U","MEAN_MOTION":13.15550709,"ECCENTRICITY":0.00022679,"INCLINATION":87.899,"RA_OF_ASC_NODE":253.022,"ARG_OF_PERICENTER":107.2632,"MEAN_ANOMALY":252.8747,"EPHEMERIS_TYPE":0,"NORAD_CAT_ID":48771,"ELEMENT_SET_NO":999,"REV_AT_EPOCH":24845,"BSTAR":0.00010289522,"MEAN_MOTION_DOT":5.2e-7,"MEAN_MOTION_DDOT":0},{"OBJECT_NAME":"ONEWEB-0242","OBJECT_ID":"2021-045F","EPOCH":"2026-07-18T03:40:50.147616","CLASSIFICATION_TYPE":"U","MEAN_MOTION":13.1554856,"ECCENTRICITY":0.00020274,"INCLINATION":87.8994,"RA_OF_ASC_NODE":253.0207,"ARG_OF_PERICENTER":103.2332,"MEAN_ANOMALY":256.9024,"EPHEMERIS_TYPE":0,"NORAD_CAT_ID":48772,"ELEMENT_SET_NO":999,"REV_AT_EPOCH":24849,"BSTAR":0.0002577769,"MEAN_MOTION_DOT":0.0000011,"MEAN_MOTION_DDOT":0},{"OBJECT_NAME":"ONEWEB-0241","OBJECT_ID":"2021-045G","EPOCH":"2026-07-18T03:22:36.912000","CLASSIFICATION_TYPE":"U","MEAN_MOTION":13.1553883,"ECCENTRICITY":0.0002434,"INCLINATION":87.8981,"RA_OF_ASC_NODE":253.038,"ARG_OF_PERICENTER":104.5549,"MEAN_ANOMALY":255.5851,"EPHEMERIS_TYPE":0,"NORAD_CAT_ID":48773,"ELEMENT_SET_NO":999,"REV_AT_EPOCH":24840,"BSTAR":0.00056829396,"MEAN_MOTION_DOT":0.00000227,"MEAN_MOTION_DDOT":0},{"OBJECT_NAME":"ONEWEB-0243","OBJECT_ID":"2021-045H","EPOCH":"2026-07-18T04:08:11.317344","CLASSIFICATION_TYPE":"U","MEAN_MOTION":13.15550442,"ECCENTRICITY":0.00020047,"INCLINATION":87.8982,"RA_OF_ASC_NODE":253.0443,"ARG_OF_PERICENTER":114.117,"MEAN_ANOMALY":246.017,"EPHEMERIS_TYPE":0,"NORAD_CAT_ID":48774,"ELEMENT_SET_NO":999,"REV_AT_EPOCH":24843,"BSTAR":-0.00019386639,"MEAN_MOTION_DOT":-6e-7,"MEAN_MOTION_DDOT":0},{"OBJECT_NAME":"ONEWEB-0222","OBJECT_ID":"2021-045J","EPOCH":"2026-07-18T03:44:15.151488","CLASSIFICATION_TYPE":"U","MEAN_MOTION":13.15548255,"ECCENTRICITY":0.00022362,"INCLINATION":87.8991,"RA_OF_ASC_NODE":253.0177,"ARG_OF_PERICENTER":101.2817,"MEAN_ANOMALY":258.8565,"EPHEMERIS_TYPE":0,"NORAD_CAT_ID":48775,"ELEMENT_SET_NO":999,"REV_AT_EPOCH":24847,"BSTAR":0.00029245235,"MEAN_MOTION_DOT":0.00000123,"MEAN_MOTION_DDOT":0},{"OBJECT_NAME":"ONEWEB-0244","OBJECT_ID":"2021-045K","EPOCH":"2026-07-18T04:21:54.427680","CLASSIFICATION_TYPE":"U","MEAN_MOTION":13.15548566,"ECCENTRICITY":0.00021035,"INCLINATION":87.8993,"RA_OF_ASC_NODE":253.0091,"ARG_OF_PERICENTER":101.2756,"MEAN_ANOMALY":258.8611,"EPHEMERIS_TYPE":0,"NORAD_CAT_ID":48776,"ELEMENT_SET_NO":999,"REV_AT_EPOCH":24904,"BSTAR":-0.00023863582,"MEAN_MOTION_DOT":-7.7e-7,"MEAN_MOTION_DDOT":0},{"OBJECT_NAME":"ONEWEB-0247","OBJECT_ID":"2021-045L","EPOCH":"2026-07-18T04:17:18.776256","CLASSIFICATION_TYPE":"U","MEAN_MOTION":13.15546791,"ECCENTRICITY":0.00022302,"INCLINATION":87.8982,"RA_OF_ASC_NODE":253.0377,"ARG_OF_PERICENTER":119.7947,"MEAN_ANOMALY":240.3405,"EPHEMERIS_TYPE":0,"NORAD_CAT_ID":48777,"ELEMENT_SET_NO":999,"REV_AT_EPOCH":24848,"BSTAR":-0.00031687782,"MEAN_MOTION_DOT":-0.00000106,"MEAN_MOTION_DDOT":0},{"OBJECT_NAME":"ONEWEB-0245","OBJECT_ID":"2021-045M","EPOCH":"2026-07-18T04:10:28.551648","CLASSIFICATION_TYPE":"U","MEAN_MOTION":13.15549361,"ECCENTRICITY":0.00022887,"INCLINATION":87.8991,"RA_OF_ASC_NODE":253.0206,"ARG_OF_PERICENTER":98.6264,"MEAN_ANOMALY":261.5126,"EPHEMERIS_TYPE":0,"NORAD_CAT_ID":48778,"ELEMENT_SET_NO":999,"REV_AT_EPOCH":24845,"BSTAR":-0.00027242242,"MEAN_MOTION_DOT":-9e-7,"MEAN_MOTION_DDOT":0}]}
